{
"type": "FeatureCollection",
"name": "hotosm_sau_railways_points_geojson",
"features": [
{ "type": "Feature", "properties": { "name": "Abqaiq", "name:en": null, "railway": "station", "ele": null, "operator:type": null, "layer": null, "addr:full": null, "addr:city": null, "source": null, "name:ar": null, "osm_id": 2011671784, "osm_type": "nodes" }, "geometry": { "type": "Point", "coordinates": [ 49.6647336, 25.9319342 ] } },
{ "type": "Feature", "properties": { "name": "محطة الخرج", "name:en": "Mahattat al Kharj", "railway": "station", "ele": null, "operator:type": null, "layer": null, "addr:full": null, "addr:city": null, "source": null, "name:ar": "محطة الخرج", "osm_id": 1236705235, "osm_type": "nodes" }, "geometry": { "type": "Point", "coordinates": [ 47.3594308, 24.245621 ] } },
{ "type": "Feature", "properties": { "name": "محطة المجمعة", "name:en": "Majmmah", "railway": "station", "ele": null, "operator:type": null, "layer": null, "addr:full": null, "addr:city": null, "source": null, "name:ar": null, "osm_id": 7985031031, "osm_type": "nodes" }, "geometry": { "type": "Point", "coordinates": [ 45.4197342, 25.9207722 ] } },
{ "type": "Feature", "properties": { "name": "الجوف", "name:en": "Al-Jawf", "railway": "station", "ele": null, "operator:type": null, "layer": null, "addr:full": null, "addr:city": null, "source": null, "name:ar": null, "osm_id": 5920530139, "osm_type": "nodes" }, "geometry": { "type": "Point", "coordinates": [ 39.8376771, 29.6485411 ] } },
{ "type": "Feature", "properties": { "name": "إصطبل عنتر", "name:en": "Istabl Antar Station", "railway": "station", "ele": null, "operator:type": null, "layer": null, "addr:full": null, "addr:city": null, "source": null, "name:ar": "إصطبل عنتر", "osm_id": 1236695030, "osm_type": "nodes" }, "geometry": { "type": "Point", "coordinates": [ 38.8850331, 25.0986865 ] } },
{ "type": "Feature", "properties": { "name": "محطة محيط", "name:en": "Muhit Station", "railway": "station", "ele": null, "operator:type": null, "layer": null, "addr:full": null, "addr:city": null, "source": null, "name:ar": "محطة محيط", "osm_id": 1236691779, "osm_type": "nodes" }, "geometry": { "type": "Point", "coordinates": [ 39.4695307, 24.4975713 ] } },
{ "type": "Feature", "properties": { "name": "محطة بواطة", "name:en": "Buwatah Station", "railway": "station", "ele": null, "operator:type": null, "layer": null, "addr:full": null, "addr:city": null, "source": null, "name:ar": "محطة بواطة", "osm_id": 1236693196, "osm_type": "nodes" }, "geometry": { "type": "Point", "coordinates": [ 39.2185777, 24.7010109 ] } },
{ "type": "Feature", "properties": { "name": "المحتطب", "name:en": "Al Muhtatab", "railway": "station", "ele": null, "operator:type": null, "layer": null, "addr:full": null, "addr:city": null, "source": null, "name:ar": "المحتطب", "osm_id": 1236321309, "osm_type": "nodes" }, "geometry": { "type": "Point", "coordinates": [ 36.4722982, 28.4917609 ] } },
{ "type": "Feature", "properties": { "name": "محطة حفيرة", "name:en": "Mahattat Hafirah", "railway": "station", "ele": null, "operator:type": null, "layer": null, "addr:full": null, "addr:city": null, "source": null, "name:ar": "محطة حفيرة", "osm_id": 1236691876, "osm_type": "nodes" }, "geometry": { "type": "Point", "coordinates": [ 39.3591804, 24.5909685 ] } },
{ "type": "Feature", "properties": { "name": "أبو طاقة", "name:en": "Abu Taqah", "railway": "station", "ele": null, "operator:type": null, "layer": null, "addr:full": null, "addr:city": null, "source": null, "name:ar": "أبو طاقة", "osm_id": 1236392443, "osm_type": "nodes" }, "geometry": { "type": "Point", "coordinates": [ 37.8431763, 26.9922725 ] } },
{ "type": "Feature", "properties": { "name": "المزحم", "name:en": "Al Mazham", "railway": "station", "ele": null, "operator:type": null, "layer": null, "addr:full": null, "addr:city": null, "source": null, "name:ar": "المزحم", "osm_id": 1236392957, "osm_type": "nodes" }, "geometry": { "type": "Point", "coordinates": [ 37.8602867, 26.8979991 ] } },
{ "type": "Feature", "properties": { "name": "الحزم", "name:en": "Al Hazm", "railway": "station", "ele": null, "operator:type": null, "layer": null, "addr:full": null, "addr:city": null, "source": null, "name:ar": "الحزم", "osm_id": 1237958624, "osm_type": "nodes" }, "geometry": { "type": "Point", "coordinates": [ 36.366667, 28.65 ] } },
{ "type": "Feature", "properties": { "name": "طويرة", "name:en": "Tuwayrah", "railway": "station", "ele": null, "operator:type": null, "layer": null, "addr:full": null, "addr:city": null, "source": null, "name:ar": "طويرة", "osm_id": 1236330474, "osm_type": "nodes" }, "geometry": { "type": "Point", "coordinates": [ 38.610742, 25.885756 ] } },
{ "type": "Feature", "properties": { "name": "محطة سكة حديد الرياض", "name:en": "Riyadh Railway Station", "railway": "station", "ele": null, "operator:type": null, "layer": null, "addr:full": null, "addr:city": null, "source": null, "name:ar": null, "osm_id": 492520789, "osm_type": "nodes" }, "geometry": { "type": "Point", "coordinates": [ 46.7406568, 24.6504685 ] } },
{ "type": "Feature", "properties": { "name": "ذات الحاج", "name:en": "Dhat al Hajj", "railway": "station", "ele": null, "operator:type": null, "layer": null, "addr:full": null, "addr:city": null, "source": null, "name:ar": "ذات الحاج", "osm_id": 1237958878, "osm_type": "nodes" }, "geometry": { "type": "Point", "coordinates": [ 36.1667989, 29.0463691 ] } },
{ "type": "Feature", "properties": { "name": null, "name:en": null, "railway": "station", "ele": null, "operator:type": null, "layer": null, "addr:full": null, "addr:city": null, "source": null, "name:ar": null, "osm_id": 7931432373, "osm_type": "nodes" }, "geometry": { "type": "Point", "coordinates": [ 39.5991903, 24.4606804 ] } },
{ "type": "Feature", "properties": { "name": null, "name:en": null, "railway": "station", "ele": null, "operator:type": null, "layer": null, "addr:full": null, "addr:city": null, "source": null, "name:ar": null, "osm_id": 2952429592, "osm_type": "nodes" }, "geometry": { "type": "Point", "coordinates": [ 44.0067206, 27.8310493 ] } },
{ "type": "Feature", "properties": { "name": null, "name:en": null, "railway": "station", "ele": null, "operator:type": null, "layer": null, "addr:full": null, "addr:city": null, "source": null, "name:ar": null, "osm_id": 2846344497, "osm_type": "nodes" }, "geometry": { "type": "Point", "coordinates": [ 46.863682, 24.7343704 ] } },
{ "type": "Feature", "properties": { "name": "المدرج", "name:en": "Al Mudarraj", "railway": "station", "ele": null, "operator:type": null, "layer": null, "addr:full": null, "addr:city": null, "source": null, "name:ar": "المدرج", "osm_id": 1236330306, "osm_type": "nodes" }, "geometry": { "type": "Point", "coordinates": [ 38.6957603, 25.6878594 ] } },
{ "type": "Feature", "properties": { "name": "حائل", "name:en": "Hail", "railway": "station", "ele": null, "operator:type": null, "layer": null, "addr:full": null, "addr:city": null, "source": null, "name:ar": null, "osm_id": 6285863686, "osm_type": "nodes" }, "geometry": { "type": "Point", "coordinates": [ 41.7554194, 27.6835926 ] } },
{ "type": "Feature", "properties": { "name": "القريات", "name:en": "Al Qurayyat", "railway": "station", "ele": null, "operator:type": null, "layer": null, "addr:full": null, "addr:city": null, "source": null, "name:ar": null, "osm_id": 7987566890, "osm_type": "nodes" }, "geometry": { "type": "Point", "coordinates": [ 37.2890031, 31.4203296 ] } },
{ "type": "Feature", "properties": { "name": "القصيم", "name:en": "Al Qassim", "railway": "station", "ele": null, "operator:type": null, "layer": null, "addr:full": null, "addr:city": null, "source": null, "name:ar": null, "osm_id": 7985031321, "osm_type": "nodes" }, "geometry": { "type": "Point", "coordinates": [ 44.0915573, 26.4922762 ] } },
{ "type": "Feature", "properties": { "name": "Mada'in Saleh", "name:en": null, "railway": "station", "ele": null, "operator:type": null, "layer": null, "addr:full": null, "addr:city": null, "source": null, "name:ar": null, "osm_id": 7926611002, "osm_type": "nodes" }, "geometry": { "type": "Point", "coordinates": [ 37.9476487, 26.8065407 ] } },
{ "type": "Feature", "properties": { "name": "محطة البوير", "name:en": "Al Buwayr Station", "railway": "station", "ele": null, "operator:type": null, "layer": null, "addr:full": null, "addr:city": null, "source": null, "name:ar": "محطة البوير", "osm_id": 1236694020, "osm_type": "nodes" }, "geometry": { "type": "Point", "coordinates": [ 38.9889328, 24.9471431 ] } },
{ "type": "Feature", "properties": { "name": "ويبان", "name:en": "Wayban", "railway": "station", "ele": null, "operator:type": null, "layer": null, "addr:full": null, "addr:city": null, "source": null, "name:ar": "ويبان", "osm_id": 1236330381, "osm_type": "nodes" }, "geometry": { "type": "Point", "coordinates": [ 38.6786878, 25.79421 ] } },
{ "type": "Feature", "properties": { "name": "النسيم", "name:en": "An Naseem", "railway": "station", "ele": null, "operator:type": null, "layer": null, "addr:full": null, "addr:city": null, "source": null, "name:ar": "النسيم", "osm_id": 12390617208, "osm_type": "nodes" }, "geometry": { "type": "Point", "coordinates": [ 46.8275395, 24.7004771 ] } },
{ "type": "Feature", "properties": { "name": "محطة", "name:en": "STC", "railway": "station", "ele": null, "operator:type": null, "layer": null, "addr:full": null, "addr:city": null, "source": null, "name:ar": "محطة", "osm_id": 12393282811, "osm_type": "nodes" }, "geometry": { "type": "Point", "coordinates": [ 46.6682581, 24.7272016 ] } },
{ "type": "Feature", "properties": { "name": "محطة قصر الحكم", "name:en": "Qasr Al Hokm", "railway": "station", "ele": null, "operator:type": null, "layer": null, "addr:full": null, "addr:city": null, "source": null, "name:ar": null, "osm_id": 12395509810, "osm_type": "nodes" }, "geometry": { "type": "Point", "coordinates": [ 46.7161766, 24.6287832 ] } },
{ "type": "Feature", "properties": { "name": "مركز الملك عبدالله المالي", "name:en": "King Abdullah Financial District", "railway": "station", "ele": null, "operator:type": null, "layer": null, "addr:full": null, "addr:city": null, "source": null, "name:ar": "مركز الملك عبدالله المالي", "osm_id": 12389972535, "osm_type": "nodes" }, "geometry": { "type": "Point", "coordinates": [ 46.6430612, 24.7676165 ] } },
{ "type": "Feature", "properties": { "name": "طريق خالد بن الوليد", "name:en": "Khalid Bin Al Waleed Road", "railway": "station", "ele": null, "operator:type": null, "layer": null, "addr:full": null, "addr:city": null, "source": null, "name:ar": "طريق خالد بن الوليد", "osm_id": 12430775794, "osm_type": "nodes" }, "geometry": { "type": "Point", "coordinates": [ 46.7593672, 24.7678437 ] } },
{ "type": "Feature", "properties": { "name": "الأسعد", "name:en": "Al Asad", "railway": "station", "ele": null, "operator:type": null, "layer": null, "addr:full": null, "addr:city": null, "source": null, "name:ar": "الأسعد", "osm_id": 1236320336, "osm_type": "nodes" }, "geometry": { "type": "Point", "coordinates": [ 37.3687988, 27.8887153 ] } },
{ "type": "Feature", "properties": { "name": "المطلع", "name:en": "Al Mutalla", "railway": "station", "ele": null, "operator:type": null, "layer": null, "addr:full": null, "addr:city": null, "source": null, "name:ar": "المطلع", "osm_id": 1236392629, "osm_type": "nodes" }, "geometry": { "type": "Point", "coordinates": [ 37.8699606, 27.1581135 ] } },
{ "type": "Feature", "properties": { "name": "الدار الحمراء", "name:en": "Ad Dar al Hamra", "railway": "station", "ele": null, "operator:type": null, "layer": null, "addr:full": null, "addr:city": null, "source": null, "name:ar": "الدار الحمراء", "osm_id": 1236392693, "osm_type": "nodes" }, "geometry": { "type": "Point", "coordinates": [ 37.7990573, 27.3455919 ] } },
{ "type": "Feature", "properties": { "name": "قلعة المعظم", "name:en": "Qalat al Muazzam", "railway": "station", "ele": null, "operator:type": null, "layer": null, "addr:full": null, "addr:city": null, "source": null, "name:ar": "قلعة المعظم", "osm_id": 1237943733, "osm_type": "nodes" }, "geometry": { "type": "Point", "coordinates": [ 37.5141897, 27.7377846 ] } },
{ "type": "Feature", "properties": { "name": "خشم صنع", "name:en": "Khashm Sana", "railway": "station", "ele": null, "operator:type": null, "layer": null, "addr:full": null, "addr:city": null, "source": null, "name:ar": "خشم صنع", "osm_id": 1237944216, "osm_type": "nodes" }, "geometry": { "type": "Point", "coordinates": [ 37.6296436, 27.5362639 ] } },
{ "type": "Feature", "properties": { "name": "محطة العنقاء", "name:en": "Al Anqa Station", "railway": "station", "ele": null, "operator:type": null, "layer": null, "addr:full": null, "addr:city": null, "source": null, "name:ar": "محطة العنقاء", "osm_id": 1236694383, "osm_type": "nodes" }, "geometry": { "type": "Point", "coordinates": [ 39.1275527, 24.8524128 ] } },
{ "type": "Feature", "properties": { "name": "أبو النعم", "name:en": "Abu an Naam", "railway": "station", "ele": null, "operator:type": null, "layer": null, "addr:full": null, "addr:city": null, "source": null, "name:ar": "أبو النعم", "osm_id": 1236451837, "osm_type": "nodes" }, "geometry": { "type": "Point", "coordinates": [ 38.8243373, 25.2297409 ] } },
{ "type": "Feature", "properties": { "name": "قلعة زمرد", "name:en": "Qalat Zumurrud", "railway": "station", "ele": null, "operator:type": null, "layer": null, "addr:full": null, "addr:city": null, "source": null, "name:ar": "قلعة زمرد", "osm_id": 1236330118, "osm_type": "nodes" }, "geometry": { "type": "Point", "coordinates": [ 38.4196078, 26.1747736 ] } },
{ "type": "Feature", "properties": { "name": "البئر الجديد", "name:en": "Al Bir al Jadid", "railway": "station", "ele": null, "operator:type": null, "layer": null, "addr:full": null, "addr:city": null, "source": null, "name:ar": "البئر الجديد", "osm_id": 1236330521, "osm_type": "nodes" }, "geometry": { "type": "Point", "coordinates": [ 38.5581092, 26.0261704 ] } },
{ "type": "Feature", "properties": { "name": "سهل المطران", "name:en": "Sahl al Matran", "railway": "station", "ele": null, "operator:type": null, "layer": null, "addr:full": null, "addr:city": null, "source": null, "name:ar": "سهل المطران", "osm_id": 1236330149, "osm_type": "nodes" }, "geometry": { "type": "Point", "coordinates": [ 38.316434, 26.264799 ] } },
{ "type": "Feature", "properties": { "name": "As Salam", "name:en": null, "railway": "station", "ele": null, "operator:type": null, "layer": null, "addr:full": null, "addr:city": null, "source": null, "name:ar": null, "osm_id": 12390617207, "osm_type": "nodes" }, "geometry": { "type": "Point", "coordinates": [ 46.8112162, 24.72275 ] } },
{ "type": "Feature", "properties": { "name": "وزارة التعليم", "name:en": "Ministry of Education", "railway": "station", "ele": null, "operator:type": null, "layer": null, "addr:full": null, "addr:city": null, "source": null, "name:ar": "وزارة التعليم", "osm_id": 12353818506, "osm_type": "nodes" }, "geometry": { "type": "Point", "coordinates": [ 46.6950205, 24.7404701 ] } },
{ "type": "Feature", "properties": { "name": "وزارة الدفاع", "name:en": "Ministry of Defence", "railway": "station", "ele": null, "operator:type": null, "layer": null, "addr:full": null, "addr:city": null, "source": null, "name:ar": "وزارة الدفاع", "osm_id": 12389831234, "osm_type": "nodes" }, "geometry": { "type": "Point", "coordinates": [ 46.7182767, 24.6678297 ] } },
{ "type": "Feature", "properties": { "name": "Khurais Road", "name:en": null, "railway": "station", "ele": null, "operator:type": null, "layer": null, "addr:full": null, "addr:city": null, "source": null, "name:ar": null, "osm_id": 12393747083, "osm_type": "nodes" }, "geometry": { "type": "Point", "coordinates": [ 46.7986049, 24.7407976 ] } },
{ "type": "Feature", "properties": { "name": "Al Andalus", "name:en": null, "railway": "station", "ele": null, "operator:type": null, "layer": null, "addr:full": null, "addr:city": null, "source": null, "name:ar": null, "osm_id": 12393813802, "osm_type": "nodes" }, "geometry": { "type": "Point", "coordinates": [ 46.7902609, 24.7567313 ] } },
{ "type": "Feature", "properties": { "name": "محطة حرض", "name:en": "Mahattat Harad", "railway": "station", "ele": null, "operator:type": null, "layer": null, "addr:full": null, "addr:city": null, "source": null, "name:ar": "محطة حرض", "osm_id": 1236725492, "osm_type": "nodes" }, "geometry": { "type": "Point", "coordinates": [ 49.0609509, 24.1469106 ] } },
{ "type": "Feature", "properties": { "name": "محطة جذَّاعة", "name:en": "Jadaah", "railway": "station", "ele": null, "operator:type": null, "layer": null, "addr:full": null, "addr:city": null, "source": null, "name:ar": "محطة جذَّاعة", "osm_id": 1236451922, "osm_type": "nodes" }, "geometry": { "type": "Point", "coordinates": [ 38.8148074, 25.3784644 ] } },
{ "type": "Feature", "properties": { "name": "السريع بالمدينة المنورة", "name:en": "Al Haramain Train Station Madinah", "railway": "station", "ele": null, "operator:type": null, "layer": null, "addr:full": null, "addr:city": null, "source": null, "name:ar": null, "osm_id": 10957110707, "osm_type": "nodes" }, "geometry": { "type": "Point", "coordinates": [ 39.6996036, 24.4722969 ] } },
{ "type": "Feature", "properties": { "name": "King Abdullah Economic City", "name:en": null, "railway": "station", "ele": null, "operator:type": null, "layer": null, "addr:full": null, "addr:city": null, "source": null, "name:ar": null, "osm_id": 2147398509, "osm_type": "nodes" }, "geometry": { "type": "Point", "coordinates": [ 39.1917461, 22.4218244 ] } },
{ "type": "Feature", "properties": { "name": "محطة قطار الدمام", "name:en": "Dammam Railway Station", "railway": "station", "ele": null, "operator:type": null, "layer": null, "addr:full": null, "addr:city": null, "source": null, "name:ar": "محطة قطار الدمام", "osm_id": 492547630, "osm_type": "nodes" }, "geometry": { "type": "Point", "coordinates": [ 50.126308, 26.4097444 ] } },
{ "type": "Feature", "properties": { "name": "King Abdulaziz International Airport", "name:en": null, "railway": "station", "ele": null, "operator:type": null, "layer": null, "addr:full": null, "addr:city": null, "source": null, "name:ar": null, "osm_id": 7227897402, "osm_type": "nodes" }, "geometry": { "type": "Point", "coordinates": [ 39.1738182, 21.6605044 ] } },
{ "type": "Feature", "properties": { "name": "مركز الرياض للمعارض", "name:en": "Riyadh Exhibition Center", "railway": "station", "ele": null, "operator:type": null, "layer": null, "addr:full": null, "addr:city": null, "source": null, "name:ar": "مركز الرياض للمعارض", "osm_id": 12430195368, "osm_type": "nodes" }, "geometry": { "type": "Point", "coordinates": [ 46.7271079, 24.7545516 ] } },
{ "type": "Feature", "properties": { "name": "البطحاء", "name:en": "Al Bat'ha", "railway": "station", "ele": null, "operator:type": null, "layer": null, "addr:full": null, "addr:city": null, "source": null, "name:ar": "البطحاء", "osm_id": 12389972675, "osm_type": "nodes" }, "geometry": { "type": "Point", "coordinates": [ 46.7148261, 24.6382973 ] } },
{ "type": "Feature", "properties": { "name": "طريق الملك عبدالعزيز", "name:en": "King Abdulaziz Road", "railway": "station", "ele": null, "operator:type": null, "layer": null, "addr:full": null, "addr:city": null, "source": null, "name:ar": "طريق الملك عبدالعزيز", "osm_id": 12400413937, "osm_type": "nodes" }, "geometry": { "type": "Point", "coordinates": [ 46.6853144, 24.7367717 ] } },
{ "type": "Feature", "properties": { "name": "الورود", "name:en": "Al Wurud", "railway": "station", "ele": null, "operator:type": null, "layer": null, "addr:full": null, "addr:city": null, "source": null, "name:ar": "الورود", "osm_id": 12400413941, "osm_type": "nodes" }, "geometry": { "type": "Point", "coordinates": [ 46.6772315, 24.7333588 ] } },
{ "type": "Feature", "properties": { "name": "المرقب", "name:en": "Al Margab", "railway": "station", "ele": null, "operator:type": null, "layer": null, "addr:full": null, "addr:city": null, "source": null, "name:ar": "المرقب", "osm_id": 12400426402, "osm_type": "nodes" }, "geometry": { "type": "Point", "coordinates": [ 46.7262887, 24.6345031 ] } },
{ "type": "Feature", "properties": { "name": "المدينة الصناعية الأولى", "name:en": "First Industrial City", "railway": "station", "ele": null, "operator:type": null, "layer": null, "addr:full": null, "addr:city": null, "source": null, "name:ar": "المدينة الصناعية الأولى", "osm_id": 12396335673, "osm_type": "nodes" }, "geometry": { "type": "Point", "coordinates": [ 46.739393, 24.6447092 ] } },
{ "type": "Feature", "properties": { "name": "سكة الحديد", "name:en": "Railway", "railway": "station", "ele": null, "operator:type": null, "layer": null, "addr:full": null, "addr:city": null, "source": null, "name:ar": "سكة الحديد", "osm_id": 12396335674, "osm_type": "nodes" }, "geometry": { "type": "Point", "coordinates": [ 46.7406966, 24.6495094 ] } },
{ "type": "Feature", "properties": { "name": "جامعة الملك سعود", "name:en": "King Saud University", "railway": "station", "ele": null, "operator:type": null, "layer": null, "addr:full": null, "addr:city": null, "source": null, "name:ar": "جامعة الملك سعود", "osm_id": 12398529070, "osm_type": "nodes" }, "geometry": { "type": "Point", "coordinates": [ 46.6283403, 24.7102297 ] } },
{ "type": "Feature", "properties": { "name": "محطة عرفات رقم 3", "name:en": "Arafat 3", "railway": "station", "ele": null, "operator:type": null, "layer": null, "addr:full": null, "addr:city": null, "source": null, "name:ar": "محطة عرفات رقم 3", "osm_id": 4534861098, "osm_type": "nodes" }, "geometry": { "type": "Point", "coordinates": [ 39.9612224, 21.34583 ] } },
{ "type": "Feature", "properties": { "name": "الملز", "name:en": "Al Malaz", "railway": "station", "ele": null, "operator:type": null, "layer": null, "addr:full": null, "addr:city": null, "source": null, "name:ar": "الملز", "osm_id": 12475590068, "osm_type": "nodes" }, "geometry": { "type": "Point", "coordinates": [ 46.744549, 24.6604063 ] } },
{ "type": "Feature", "properties": { "name": "جامع الراجحي", "name:en": "Al Rajhi Grand Mosque", "railway": "station", "ele": null, "operator:type": null, "layer": null, "addr:full": null, "addr:city": null, "source": null, "name:ar": "جامع الراجحي", "osm_id": 12475590727, "osm_type": "nodes" }, "geometry": { "type": "Point", "coordinates": [ 46.7794841, 24.6802217 ] } },
{ "type": "Feature", "properties": { "name": "طريق هارون الرشيد", "name:en": "Harun Ar Rasheed Road", "railway": "station", "ele": null, "operator:type": null, "layer": null, "addr:full": null, "addr:city": null, "source": null, "name:ar": "طريق هارون الرشيد", "osm_id": 12475959588, "osm_type": "nodes" }, "geometry": { "type": "Point", "coordinates": [ 46.7959616, 24.6860921 ] } },
{ "type": "Feature", "properties": { "name": "الربيع", "name:en": "Ar Rabi", "railway": "station", "ele": null, "operator:type": null, "layer": null, "addr:full": null, "addr:city": null, "source": null, "name:ar": "الربيع", "osm_id": 12389972534, "osm_type": "nodes" }, "geometry": { "type": "Point", "coordinates": [ 46.6602637, 24.7863356 ] } },
{ "type": "Feature", "properties": { "name": "د. سليمان الحبيب", "name:en": "Dr. Sulaiman Al Habib Group", "railway": "station", "ele": null, "operator:type": null, "layer": null, "addr:full": null, "addr:city": null, "source": null, "name:ar": "د. سليمان الحبيب", "osm_id": 12388804116, "osm_type": "nodes" }, "geometry": { "type": "Point", "coordinates": [ 46.6256916, 24.8115708 ] } },
{ "type": "Feature", "properties": { "name": "نادي الضباط", "name:en": "Officers Club", "railway": "station", "ele": null, "operator:type": null, "layer": null, "addr:full": null, "addr:city": null, "source": null, "name:ar": "نادي الضباط", "osm_id": 12389831235, "osm_type": "nodes" }, "geometry": { "type": "Point", "coordinates": [ 46.7179307, 24.698283 ] } },
{ "type": "Feature", "properties": { "name": "ظهرة البديعة", "name:en": "Dhahrat Al Badiah", "railway": "station", "ele": null, "operator:type": null, "layer": null, "addr:full": null, "addr:city": null, "source": null, "name:ar": "ظهرة البديعة", "osm_id": 12400406049, "osm_type": "nodes" }, "geometry": { "type": "Point", "coordinates": [ 46.6538476, 24.6066876 ] } },
{ "type": "Feature", "properties": { "name": "سلطانة", "name:en": "Sultanah", "railway": "station", "ele": null, "operator:type": null, "layer": null, "addr:full": null, "addr:city": null, "source": null, "name:ar": "سلطانة", "osm_id": 12400406050, "osm_type": "nodes" }, "geometry": { "type": "Point", "coordinates": [ 46.6863091, 24.6148699 ] } },
{ "type": "Feature", "properties": { "name": "الوزارات", "name:en": "Al Wizarat", "railway": "station", "ele": null, "operator:type": null, "layer": null, "addr:full": null, "addr:city": null, "source": null, "name:ar": "الوزارات", "osm_id": 12423290044, "osm_type": "nodes" }, "geometry": { "type": "Point", "coordinates": [ 46.7183503, 24.6753842 ] } },
{ "type": "Feature", "properties": { "name": "المؤسسة العامة للتأمينات الاجتماعية", "name:en": "GOSI", "railway": "station", "ele": null, "operator:type": null, "layer": null, "addr:full": null, "addr:city": null, "source": null, "name:ar": "المؤسسة العامة للتأمينات الاجتماعية", "osm_id": 12430128568, "osm_type": "nodes" }, "geometry": { "type": "Point", "coordinates": [ 46.7181477, 24.6867535 ] } },
{ "type": "Feature", "properties": { "name": "حي الملك فهد 2", "name:en": "King Fahad District 2", "railway": "station", "ele": null, "operator:type": null, "layer": null, "addr:full": null, "addr:city": null, "source": null, "name:ar": null, "osm_id": 12389972677, "osm_type": "nodes" }, "geometry": { "type": "Point", "coordinates": [ 46.6636298, 24.7363202 ] } },
{ "type": "Feature", "properties": { "name": "المروج", "name:en": "Al Murooj", "railway": "station", "ele": null, "operator:type": null, "layer": null, "addr:full": null, "addr:city": null, "source": null, "name:ar": "المروج", "osm_id": 12338812518, "osm_type": "nodes" }, "geometry": { "type": "Point", "coordinates": [ 46.6545042, 24.7542572 ] } },
{ "type": "Feature", "properties": { "name": "محطة جامعة الاميره نوره 1", "name:en": "PNU 1", "railway": "station", "ele": null, "operator:type": null, "layer": null, "addr:full": null, "addr:city": null, "source": null, "name:ar": null, "osm_id": 12339129098, "osm_type": "nodes" }, "geometry": { "type": "Point", "coordinates": [ 46.7173988, 24.8416088 ] } },
{ "type": "Feature", "properties": { "name": "5 الصالة", "name:en": "Airport T5", "railway": "station", "ele": null, "operator:type": null, "layer": null, "addr:full": null, "addr:city": null, "source": null, "name:ar": null, "osm_id": 12339155043, "osm_type": "nodes" }, "geometry": { "type": "Point", "coordinates": [ 46.7104703, 24.9405127 ] } },
{ "type": "Feature", "properties": { "name": "3-4 الصالة", "name:en": "Airport T3-4", "railway": "station", "ele": null, "operator:type": null, "layer": null, "addr:full": null, "addr:city": null, "source": null, "name:ar": null, "osm_id": 12339155044, "osm_type": "nodes" }, "geometry": { "type": "Point", "coordinates": [ 46.7023559, 24.9557923 ] } },
{ "type": "Feature", "properties": { "name": "1-2 الصالة", "name:en": "Airport T1-2", "railway": "station", "ele": null, "operator:type": null, "layer": null, "addr:full": null, "addr:city": null, "source": null, "name:ar": null, "osm_id": 12339155045, "osm_type": "nodes" }, "geometry": { "type": "Point", "coordinates": [ 46.6989901, 24.9610557 ] } },
{ "type": "Feature", "properties": { "name": "محطة جامعة الاميره نوره 2", "name:en": "PNU 2", "railway": "station", "ele": null, "operator:type": null, "layer": null, "addr:full": null, "addr:city": null, "source": null, "name:ar": "محطة جامعة الاميره نوره 2", "osm_id": 12339160752, "osm_type": "nodes" }, "geometry": { "type": "Point", "coordinates": [ 46.7044164, 24.8596754 ] } },
{ "type": "Feature", "properties": { "name": "محطة طريق جدة", "name:en": "Jeddah Road", "railway": "station", "ele": null, "operator:type": null, "layer": null, "addr:full": null, "addr:city": null, "source": null, "name:ar": null, "osm_id": 12354057233, "osm_type": "nodes" }, "geometry": { "type": "Point", "coordinates": [ 46.5436021, 24.5915764 ] } },
{ "type": "Feature", "properties": { "name": "الدار البيضاء", "name:en": "Ad Dar Al Baida", "railway": "station", "ele": null, "operator:type": null, "layer": null, "addr:full": null, "addr:city": null, "source": null, "name:ar": null, "osm_id": 12388804114, "osm_type": "nodes" }, "geometry": { "type": "Point", "coordinates": [ 46.776307, 24.5600927 ] } },
{ "type": "Feature", "properties": { "name": "العزيزية", "name:en": "Al Aziziah", "railway": "station", "ele": null, "operator:type": null, "layer": null, "addr:full": null, "addr:city": null, "source": null, "name:ar": "العزيزية", "osm_id": 12388804115, "osm_type": "nodes" }, "geometry": { "type": "Point", "coordinates": [ 46.7608649, 24.5872949 ] } },
{ "type": "Feature", "properties": { "name": "طريق عثمان بن عفان", "name:en": "Uthman Bin Affan Road", "railway": "station", "ele": null, "operator:type": null, "layer": null, "addr:full": null, "addr:city": null, "source": null, "name:ar": "طريق عثمان بن عفان", "osm_id": 12389972555, "osm_type": "nodes" }, "geometry": { "type": "Point", "coordinates": [ 46.6960406, 24.8014369 ] } },
{ "type": "Feature", "properties": { "name": "وزارة الداخلية", "name:en": "Ministry of Interior", "railway": "station", "ele": null, "operator:type": null, "layer": null, "addr:full": null, "addr:city": null, "source": null, "name:ar": "وزارة الداخلية", "osm_id": 12389972673, "osm_type": "nodes" }, "geometry": { "type": "Point", "coordinates": [ 46.6948879, 24.6744167 ] } },
{ "type": "Feature", "properties": { "name": "اليرموك", "name:en": "Al Yarmuk", "railway": "station", "ele": null, "operator:type": null, "layer": null, "addr:full": null, "addr:city": null, "source": null, "name:ar": "اليرموك", "osm_id": 12390612145, "osm_type": "nodes" }, "geometry": { "type": "Point", "coordinates": [ 46.7663205, 24.7913131 ] } },
{ "type": "Feature", "properties": { "name": "غرناطة", "name:en": "Granadia", "railway": "station", "ele": null, "operator:type": null, "layer": null, "addr:full": null, "addr:city": null, "source": null, "name:ar": "غرناطة", "osm_id": 12390617221, "osm_type": "nodes" }, "geometry": { "type": "Point", "coordinates": [ 46.7291665, 24.7864667 ] } },
{ "type": "Feature", "properties": { "name": "حي الملك فهد", "name:en": "King Fahad District", "railway": "station", "ele": null, "operator:type": null, "layer": null, "addr:full": null, "addr:city": null, "source": null, "name:ar": "حي الملك فهد", "osm_id": 12393282810, "osm_type": "nodes" }, "geometry": { "type": "Point", "coordinates": [ 46.6592966, 24.7449429 ] } },
{ "type": "Feature", "properties": { "name": "مصرف الانماء", "name:en": "Al Inma Bank", "railway": "station", "ele": null, "operator:type": null, "layer": null, "addr:full": null, "addr:city": null, "source": null, "name:ar": "مصرف الانماء", "osm_id": 12393282812, "osm_type": "nodes" }, "geometry": { "type": "Point", "coordinates": [ 46.6801989, 24.7034375 ] } },
{ "type": "Feature", "properties": { "name": "مكتبة الملك فهد", "name:en": "King Fahad Library", "railway": "station", "ele": null, "operator:type": null, "layer": null, "addr:full": null, "addr:city": null, "source": null, "name:ar": "مكتبة الملك فهد", "osm_id": 12393282813, "osm_type": "nodes" }, "geometry": { "type": "Point", "coordinates": [ 46.6869747, 24.6901954 ] } },
{ "type": "Feature", "properties": { "name": "مجمع المحاكم", "name:en": "Courts Complex", "railway": "station", "ele": null, "operator:type": null, "layer": null, "addr:full": null, "addr:city": null, "source": null, "name:ar": "مجمع المحاكم", "osm_id": 12395509809, "osm_type": "nodes" }, "geometry": { "type": "Point", "coordinates": [ 46.7122827, 24.6267497 ] } },
{ "type": "Feature", "properties": { "name": "بنك البلاد", "name:en": "Bank Al Bilad", "railway": "station", "ele": null, "operator:type": null, "layer": null, "addr:full": null, "addr:city": null, "source": null, "name:ar": "بنك البلاد", "osm_id": 12396325411, "osm_type": "nodes" }, "geometry": { "type": "Point", "coordinates": [ 46.6837, 24.6965059 ] } },
{ "type": "Feature", "properties": { "name": "الجرادية", "name:en": "Al Jarradiyah", "railway": "station", "ele": null, "operator:type": null, "layer": null, "addr:full": null, "addr:city": null, "source": null, "name:ar": "الجرادية", "osm_id": 12397404698, "osm_type": "nodes" }, "geometry": { "type": "Point", "coordinates": [ 46.6977927, 24.6183674 ] } },
{ "type": "Feature", "properties": { "name": "حي جرير", "name:en": "Jarir District", "railway": "station", "ele": null, "operator:type": null, "layer": null, "addr:full": null, "addr:city": null, "source": null, "name:ar": "حي جرير", "osm_id": 12397423135, "osm_type": "nodes" }, "geometry": { "type": "Point", "coordinates": [ 46.7604062, 24.6730573 ] } },
{ "type": "Feature", "properties": { "name": "طويق", "name:en": "Tuwaiq", "railway": "station", "ele": null, "operator:type": null, "layer": null, "addr:full": null, "addr:city": null, "source": null, "name:ar": "طويق", "osm_id": 12397423140, "osm_type": "nodes" }, "geometry": { "type": "Point", "coordinates": [ 46.5598366, 24.5854995 ] } },
{ "type": "Feature", "properties": { "name": "النزهة", "name:en": "An Nuzhah", "railway": "station", "ele": null, "operator:type": null, "layer": null, "addr:full": null, "addr:city": null, "source": null, "name:ar": "النزهة", "osm_id": 12430128572, "osm_type": "nodes" }, "geometry": { "type": "Point", "coordinates": [ 46.7124201, 24.7482112 ] } },
{ "type": "Feature", "properties": { "name": "مدينة الملك عبد العزيز للعلوم والتقنية", "name:en": "King Abdulaziz City for Science and Technology", "railway": "station", "ele": null, "operator:type": null, "layer": null, "addr:full": null, "addr:city": null, "source": null, "name:ar": "مدينة الملك عبد العزيز للعلوم والتقنية", "osm_id": 12430732327, "osm_type": "nodes" }, "geometry": { "type": "Point", "coordinates": [ 46.6466631, 24.7204678 ] } },
{ "type": "Feature", "properties": { "name": "شارع عائشة بنت أبي بكر", "name:en": "Aishah bint Abi Bakr Street", "railway": "station", "ele": null, "operator:type": null, "layer": null, "addr:full": null, "addr:city": null, "source": null, "name:ar": "شارع عائشة بنت أبي بكر", "osm_id": 12475567743, "osm_type": "nodes" }, "geometry": { "type": "Point", "coordinates": [ 46.6438099, 24.6005871 ] } },
{ "type": "Feature", "properties": { "name": "الدوح", "name:en": "Ad Douh", "railway": "station", "ele": null, "operator:type": null, "layer": null, "addr:full": null, "addr:city": null, "source": null, "name:ar": "الدوح", "osm_id": 12475590726, "osm_type": "nodes" }, "geometry": { "type": "Point", "coordinates": [ 46.58849, 24.5825159 ] } },
{ "type": "Feature", "properties": { "name": "المحطة الغربية", "name:en": "Western Station", "railway": "station", "ele": null, "operator:type": null, "layer": null, "addr:full": null, "addr:city": null, "source": null, "name:ar": "المحطة الغربية", "osm_id": 12475968014, "osm_type": "nodes" }, "geometry": { "type": "Point", "coordinates": [ 46.6145785, 24.5818122 ] } },
{ "type": "Feature", "properties": { "name": "شارع حسان بن ثابت", "name:en": "Hassan ibn Thabit Street", "railway": "station", "ele": null, "operator:type": null, "layer": null, "addr:full": null, "addr:city": null, "source": null, "name:ar": "شارع حسان بن ثابت", "osm_id": 12476534086, "osm_type": "nodes" }, "geometry": { "type": "Point", "coordinates": [ 46.8475725, 24.7128001 ] } },
{ "type": "Feature", "properties": { "name": "خشم العان", "name:en": "Khashm Al An", "railway": "station", "ele": null, "operator:type": null, "layer": null, "addr:full": null, "addr:city": null, "source": null, "name:ar": "خشم العان", "osm_id": 12476007298, "osm_type": "nodes" }, "geometry": { "type": "Point", "coordinates": [ 46.860699, 24.7216651 ] } },
{ "type": "Feature", "properties": { "name": "هدية", "name:en": "Hadiyah", "railway": "station", "ele": null, "operator:type": null, "layer": null, "addr:full": null, "addr:city": null, "source": "GPS", "name:ar": "هدية", "osm_id": 1236451809, "osm_type": "nodes" }, "geometry": { "type": "Point", "coordinates": [ 38.7387912, 25.541176 ] } },
{ "type": "Feature", "properties": { "name": "محطة منى رقم 2", "name:en": "Mina Station 2", "railway": "station", "ele": null, "operator:type": null, "layer": null, "addr:full": null, "addr:city": null, "source": null, "name:ar": "محطة منى رقم 2", "osm_id": 4534822205, "osm_type": "nodes" }, "geometry": { "type": "Point", "coordinates": [ 39.8912638, 21.4044709 ] } },
{ "type": "Feature", "properties": { "name": "محطة منى رقم 1", "name:en": "Mina Station 1", "railway": "station", "ele": null, "operator:type": null, "layer": null, "addr:full": null, "addr:city": null, "source": null, "name:ar": "محطة منى رقم 1", "osm_id": 4534822206, "osm_type": "nodes" }, "geometry": { "type": "Point", "coordinates": [ 39.8978933, 21.3991802 ] } },
{ "type": "Feature", "properties": { "name": "محطة مزدلفة رقم 3", "name:en": "Muzdalifah Station 3", "railway": "station", "ele": null, "operator:type": null, "layer": null, "addr:full": null, "addr:city": null, "source": null, "name:ar": "محطة مزدلفة رقم 3", "osm_id": 4534824625, "osm_type": "nodes" }, "geometry": { "type": "Point", "coordinates": [ 39.9004901, 21.3905913 ] } },
{ "type": "Feature", "properties": { "name": "محطة مزدلفة رقم 2", "name:en": "Muzdalifah Station 2", "railway": "station", "ele": null, "operator:type": null, "layer": null, "addr:full": null, "addr:city": null, "source": null, "name:ar": "محطة مزدلفة رقم 2", "osm_id": 4534834974, "osm_type": "nodes" }, "geometry": { "type": "Point", "coordinates": [ 39.9067503, 21.3830287 ] } },
{ "type": "Feature", "properties": { "name": "محطة مزدلفة رقم 1", "name:en": "Muzdalifah Station 1", "railway": "station", "ele": null, "operator:type": null, "layer": null, "addr:full": null, "addr:city": null, "source": null, "name:ar": "محطة مزدلفة رقم 1", "osm_id": 4534838647, "osm_type": "nodes" }, "geometry": { "type": "Point", "coordinates": [ 39.9179715, 21.3789163 ] } },
{ "type": "Feature", "properties": { "name": "قطار المشاعر - محطة منى 3 - الجمرات", "name:en": "Jamarat (Mina Station 3)", "railway": "station", "ele": null, "operator:type": null, "layer": null, "addr:full": null, "addr:city": null, "source": null, "name:ar": "قطار المشاعر - محطة منى 3 - الجمرات", "osm_id": 6024783454, "osm_type": "nodes" }, "geometry": { "type": "Point", "coordinates": [ 39.87064, 21.4183961 ] } },
{ "type": "Feature", "properties": { "name": "محطة عرفات رقم 2", "name:en": "Arafat 2", "railway": "station", "ele": null, "operator:type": null, "layer": null, "addr:full": null, "addr:city": null, "source": null, "name:ar": "محطة عرفات رقم 2", "osm_id": 4534861099, "osm_type": "nodes" }, "geometry": { "type": "Point", "coordinates": [ 39.9690282, 21.341484 ] } },
{ "type": "Feature", "properties": { "name": "محطة عرفات رقم 1", "name:en": "Arafat 1", "railway": "station", "ele": null, "operator:type": null, "layer": null, "addr:full": null, "addr:city": null, "source": null, "name:ar": "محطة عرفات رقم 1", "osm_id": 4534861100, "osm_type": "nodes" }, "geometry": { "type": "Point", "coordinates": [ 39.9754184, 21.3369021 ] } },
{ "type": "Feature", "properties": { "name": "الحمراء", "name:en": "Al Hamra", "railway": "station", "ele": null, "operator:type": null, "layer": null, "addr:full": null, "addr:city": null, "source": null, "name:ar": "الحمراء", "osm_id": 12392081301, "osm_type": "nodes" }, "geometry": { "type": "Point", "coordinates": [ 46.7764828, 24.7763466 ] } },
{ "type": "Feature", "properties": { "name": "التخصصي", "name:en": "At Takhassussi", "railway": "station", "ele": null, "operator:type": null, "layer": null, "addr:full": null, "addr:city": null, "source": null, "name:ar": "التخصصي", "osm_id": 12396325414, "osm_type": "nodes" }, "geometry": { "type": "Point", "coordinates": [ 46.6543724, 24.7237215 ] } },
{ "type": "Feature", "properties": { "name": "الصالحية", "name:en": "As Salhiyah", "railway": "station", "ele": null, "operator:type": null, "layer": null, "addr:full": null, "addr:city": null, "source": null, "name:ar": "الصالحية", "osm_id": 12400426401, "osm_type": "nodes" }, "geometry": { "type": "Point", "coordinates": [ 46.7328443, 24.6377654 ] } },
{ "type": "Feature", "properties": { "name": "الحلة", "name:en": "Al Hilla", "railway": "station", "ele": null, "operator:type": null, "layer": null, "addr:full": null, "addr:city": null, "source": null, "name:ar": "الحلة", "osm_id": 12400426403, "osm_type": "nodes" }, "geometry": { "type": "Point", "coordinates": [ 46.7217927, 24.6322496 ] } },
{ "type": "Feature", "properties": { "name": "سيتي سينتر اشبيلية", "name:en": "City Centre Ishbiliyah", "railway": "station", "ele": null, "operator:type": null, "layer": null, "addr:full": null, "addr:city": null, "source": null, "name:ar": "سيتي سينتر اشبيلية", "osm_id": 12430768946, "osm_type": "nodes" }, "geometry": { "type": "Point", "coordinates": [ 46.8108103, 24.7922749 ] } },
{ "type": "Feature", "properties": { "name": "الخليج", "name:en": "Al Khaleej", "railway": "station", "ele": null, "operator:type": null, "layer": null, "addr:full": null, "addr:city": null, "source": null, "name:ar": "الخليج", "osm_id": 12430721513, "osm_type": "nodes" }, "geometry": { "type": "Point", "coordinates": [ 46.7944103, 24.7821749 ] } },
{ "type": "Feature", "properties": { "name": "استاد الملك فهد", "name:en": "King Fahad Stadium", "railway": "station", "ele": null, "operator:type": null, "layer": null, "addr:full": null, "addr:city": null, "source": null, "name:ar": "استاد الملك فهد", "osm_id": 12430736336, "osm_type": "nodes" }, "geometry": { "type": "Point", "coordinates": [ 46.8364288, 24.7930828 ] } },
{ "type": "Feature", "properties": { "name": "وزارة المالية", "name:en": "Ministry of Finance", "railway": "station", "ele": null, "operator:type": null, "layer": null, "addr:full": null, "addr:city": null, "source": null, "name:ar": "وزارة المالية", "osm_id": 12389831232, "osm_type": "nodes" }, "geometry": { "type": "Point", "coordinates": [ 46.7164314, 24.6526021 ] } },
{ "type": "Feature", "properties": { "name": "المتحف الوطني", "name:en": "National Museum", "railway": "station", "ele": null, "operator:type": null, "layer": null, "addr:full": null, "addr:city": null, "source": null, "name:ar": "المتحف الوطني", "osm_id": 12389972676, "osm_type": "nodes" }, "geometry": { "type": "Point", "coordinates": [ 46.7131247, 24.6453613 ] } },
{ "type": "Feature", "properties": { "name": "الضباب", "name:en": "Ad Dhabab", "railway": "station", "ele": null, "operator:type": null, "layer": null, "addr:full": null, "addr:city": null, "source": null, "name:ar": "الضباب", "osm_id": 12389831236, "osm_type": "nodes" }, "geometry": { "type": "Point", "coordinates": [ 46.7078389, 24.7096979 ] } },
{ "type": "Feature", "properties": { "name": "السليمانية", "name:en": "As Sulimaniyah", "railway": "station", "ele": null, "operator:type": null, "layer": null, "addr:full": null, "addr:city": null, "source": null, "name:ar": "السليمانية", "osm_id": 12389831237, "osm_type": "nodes" }, "geometry": { "type": "Point", "coordinates": [ 46.7002912, 24.7128984 ] } },
{ "type": "Feature", "properties": { "name": "صلاح الدين", "name:en": "Salahaddin", "railway": "station", "ele": null, "operator:type": null, "layer": null, "addr:full": null, "addr:city": null, "source": null, "name:ar": "صلاح الدين", "osm_id": 12389831239, "osm_type": "nodes" }, "geometry": { "type": "Point", "coordinates": [ 46.7006144, 24.7284511 ] } },
{ "type": "Feature", "properties": { "name": "واحة الملك سلمان", "name:en": "King Salman Oasis", "railway": "station", "ele": null, "operator:type": null, "layer": null, "addr:full": null, "addr:city": null, "source": null, "name:ar": "واحة الملك سلمان", "osm_id": 12406935607, "osm_type": "nodes" }, "geometry": { "type": "Point", "coordinates": [ 46.6385977, 24.7170021 ] } },
{ "type": "Feature", "properties": { "name": "وزاره البيئة والمياه والزراعة", "name:en": "MEW&A", "railway": "station", "ele": null, "operator:type": null, "layer": null, "addr:full": null, "addr:city": null, "source": null, "name:ar": "وزاره البيئة والمياه والزراعة", "osm_id": 12389831233, "osm_type": "nodes" }, "geometry": { "type": "Point", "coordinates": [ 46.7177242, 24.6598274 ] } },
{ "type": "Feature", "properties": { "name": "SABIC", "name:en": null, "railway": "station", "ele": null, "operator:type": null, "layer": null, "addr:full": null, "addr:city": null, "source": null, "name:ar": null, "osm_id": 12389972557, "osm_type": "nodes" }, "geometry": { "type": "Point", "coordinates": [ 46.7093543, 24.8071233 ] } },
{ "type": "Feature", "properties": { "name": "محطة قطار الحرمين السريع", "name:en": "Makkah Haramain High Speed Railway Station", "railway": "station", "ele": null, "operator:type": null, "layer": null, "addr:full": null, "addr:city": null, "source": null, "name:ar": "محطة قطار الحرمين السريع", "osm_id": 10956967098, "osm_type": "nodes" }, "geometry": { "type": "Point", "coordinates": [ 39.7885323, 21.4176557 ] } }
]
}
